[{"OBJECT_NAME":"YAM-5","OBJECT_ID":"2023-001BV","EPOCH":"2026-03-09T17:04:59.084544","MEAN_MOTION":15.36366488,"ECCENTRICITY":0.00107476,"INCLINATION":97.3317,"RA_OF_ASC_NODE":132.0368,"ARG_OF_PERICENTER":105.8721,"MEAN_ANOMALY":254.3709,"EPHEMERIS_TYPE":0,"CLASSIFICATION_TYPE":"U","NORAD_CAT_ID":55076,"ELEMENT_SET_NO":999,"REV_AT_EPOCH":17682,"BSTAR":0.00037500354,"MEAN_MOTION_DOT":0.00013251,"MEAN_MOTION_DDOT":0},{"OBJECT_NAME":"STARLINK-32784","OBJECT_ID":"2025-008W","EPOCH":"2026-03-09T22:06:29.211552","MEAN_MOTION":15.31114656,"ECCENTRICITY":0.00057395,"INCLINATION":42.9937,"RA_OF_ASC_NODE":275.4081,"ARG_OF_PERICENTER":294.7007,"MEAN_ANOMALY":65.3248,"EPHEMERIS_TYPE":0,"CLASSIFICATION_TYPE":"U","NORAD_CAT_ID":62607,"ELEMENT_SET_NO":999,"REV_AT_EPOCH":6567,"BSTAR":0.0029487401,"MEAN_MOTION_DOT":0.00091369,"MEAN_MOTION_DDOT":0}]
